{
  "KSFO": {
    "latest_issue_time": "2026-04-02T11:29:00.000Z",
    "latest_record_id": "KSFO|2026-04-02T11:29:00.000Z|TAF KSFO 021129Z 0212/0318 29011KT P6SM FEW010 BKN050 FM022200 30015G25KT P6SM FEW250 FM030300 29015KT P6SM FEW250 FM031000 31005KT P6SM SKC"
  }
}