{
  "KSFO": {
    "latest_record_id": "KSFO|2026-03-23T22:00:00.000Z|METAR KSFO 232156Z 29014KT 10SM FEW200 23/M02 A3004 RMK AO2 SLP171 T02331022",
    "latest_report_time": "2026-03-23T22:00:00.000Z"
  }
}